{
"type": "FeatureCollection",
"name": "censustracts",
"crs": { "type": "name", "properties": { "name": "urn:ogc:def:crs:OGC:1.3:CRS84" } },
"features": [
{ "type": "Feature", "properties": { "CTUID": "5410140.01", "DGUID": "2021S05075410140.01", "CTNAME": "0140.01", "LANDAREA": 174.0211, "PRUID": "35", "pop21": "4803.00", "a_land": 174.02, "popdens": "27.60" }, "geometry": { "type": "LineString", "coordinates": [ [ -80.202433350295991, 43.39 ], [ -80.250933913499622, 43.39 ] ] } },
{ "type": "Feature", "properties": { "CTUID": "5370142.02", "DGUID": "2021S05075370142.02", "CTNAME": "0142.02", "LANDAREA": 137.7485, "PRUID": "35", "pop21": "4030.00", "a_land": 137.75, "popdens": "29.30" }, "geometry": { "type": "LineString", "coordinates": [ [ -80.069774845546178, 43.39 ], [ -80.202433350295991, 43.39 ] ] } },
{ "type": "Feature", "properties": { "CTUID": "5370143.00", "DGUID": "2021S05075370143.00", "CTNAME": "0143.00", "LANDAREA": 78.5762, "PRUID": "35", "pop21": "3812.00", "a_land": 78.58, "popdens": "48.50" }, "geometry": { "type": "LineString", "coordinates": [ [ -80.023414547398914, 43.39 ], [ -80.069774845546178, 43.39 ] ] } },
{ "type": "Feature", "properties": { "CTUID": "5370222.02", "DGUID": "2021S05075370222.02", "CTNAME": "0222.02", "LANDAREA": 1.4113, "PRUID": "35", "pop21": "4189.00", "a_land": 1.41, "popdens": "2968.20" }, "geometry": { "type": "LineString", "coordinates": [ [ -79.749262685374958, 43.39 ], [ -79.750042074187448, 43.39 ] ] } },
{ "type": "Feature", "properties": { "CTUID": "5350610.06", "DGUID": "2021S05075350610.06", "CTNAME": "0610.06", "LANDAREA": 1.4267, "PRUID": "35", "pop21": "4234.00", "a_land": 1.43, "popdens": "2967.70" }, "geometry": { "type": "LineString", "coordinates": [ [ -79.710485605734419, 43.39 ], [ -79.715353048976368, 43.39 ] ] } },
{ "type": "Feature", "properties": { "CTUID": "5370222.01", "DGUID": "2021S05075370222.01", "CTNAME": "0222.01", "LANDAREA": 1.9344, "PRUID": "35", "pop21": "0.00", "a_land": 1.93, "popdens": "0.00" }, "geometry": { "type": "LineString", "coordinates": [ [ -79.750042074187448, 43.39 ], [ -79.762434303546115, 43.39 ] ] } },
{ "type": "Feature", "properties": { "CTUID": "5350610.05", "DGUID": "2021S05075350610.05", "CTNAME": "0610.05", "LANDAREA": 1.8019, "PRUID": "35", "pop21": "4592.00", "a_land": 1.8, "popdens": "2548.40" }, "geometry": { "type": "LineString", "coordinates": [ [ -79.715353048976368, 43.39 ], [ -79.728664589720296, 43.39 ] ] } },
{ "type": "Feature", "properties": { "CTUID": "5370144.02", "DGUID": "2021S05075370144.02", "CTNAME": "0144.02", "LANDAREA": 34.0386, "PRUID": "35", "pop21": "1856.00", "a_land": 34.04, "popdens": "54.50" }, "geometry": { "type": "LineString", "coordinates": [ [ -79.920479631929567, 43.39 ], [ -79.95619305831859, 43.39 ] ] } },
{ "type": "Feature", "properties": { "CTUID": "5370223.20", "DGUID": "2021S05075370223.20", "CTNAME": "0223.20", "LANDAREA": 4.1604, "PRUID": "35", "pop21": "4675.00", "a_land": 4.16, "popdens": "1123.70" }, "geometry": { "type": "LineString", "coordinates": [ [ -79.784934935764241, 43.39 ], [ -79.794455235072306, 43.39 ] ] } },
{ "type": "Feature", "properties": { "CTUID": "5370223.16", "DGUID": "2021S05075370223.16", "CTNAME": "0223.16", "LANDAREA": 0.5801, "PRUID": "35", "pop21": "2056.00", "a_land": 0.58, "popdens": "3544.20" }, "geometry": { "type": "LineString", "coordinates": [ [ -79.820920652851626, 43.39 ], [ -79.826288278471495, 43.39 ] ] } },
{ "type": "Feature", "properties": { "CTUID": "5370223.15", "DGUID": "2021S05075370223.15", "CTNAME": "0223.15", "LANDAREA": 0.7338, "PRUID": "35", "pop21": "2447.00", "a_land": 0.73, "popdens": "3334.70" }, "geometry": { "type": "LineString", "coordinates": [ [ -79.812889656081026, 43.39 ], [ -79.820920652851626, 43.39 ] ] } },
{ "type": "Feature", "properties": { "CTUID": "5370223.13", "DGUID": "2021S05075370223.13", "CTNAME": "0223.13", "LANDAREA": 1.8187, "PRUID": "35", "pop21": "4379.00", "a_land": 1.82, "popdens": "2407.80" }, "geometry": { "type": "LineString", "coordinates": [ [ -79.794455235072306, 43.39 ], [ -79.800946863596181, 43.39 ] ] } },
{ "type": "Feature", "properties": { "CTUID": "5370223.14", "DGUID": "2021S05075370223.14", "CTNAME": "0223.14", "LANDAREA": 1.5839, "PRUID": "35", "pop21": "4176.00", "a_land": 1.58, "popdens": "2636.50" }, "geometry": { "type": "LineString", "coordinates": [ [ -79.800946863596181, 43.39 ], [ -79.812889656081026, 43.39 ] ] } },
{ "type": "Feature", "properties": { "CTUID": "5370224.05", "DGUID": "2021S05075370224.05", "CTNAME": "0224.05", "LANDAREA": 1.3614, "PRUID": "35", "pop21": "4162.00", "a_land": 1.36, "popdens": "3057.10" }, "geometry": { "type": "LineString", "coordinates": [ [ -79.826288278471495, 43.39 ], [ -79.833914420027853, 43.39 ] ] } },
{ "type": "Feature", "properties": { "CTUID": "5370223.19", "DGUID": "2021S05075370223.19", "CTNAME": "0223.19", "LANDAREA": 4.1916, "PRUID": "35", "pop21": "4301.00", "a_land": 4.19, "popdens": "1026.10" }, "geometry": { "type": "LineString", "coordinates": [ [ -79.762434303546115, 43.39 ], [ -79.784934935764241, 43.39 ] ] } },
{ "type": "Feature", "properties": { "CTUID": "5350612.01", "DGUID": "2021S05075350612.01", "CTNAME": "0612.01", "LANDAREA": 8.031, "PRUID": "35", "pop21": "51.00", "a_land": 8.03, "popdens": "6.40" }, "geometry": { "type": "LineString", "coordinates": [ [ -79.728664589720296, 43.39 ], [ -79.749262685374958, 43.39 ] ] } },
{ "type": "Feature", "properties": { "CTUID": "5370144.01", "DGUID": "2021S05075370144.01", "CTNAME": "0144.01", "LANDAREA": 61.0528, "PRUID": "35", "pop21": "5305.00", "a_land": 61.05, "popdens": "86.90" }, "geometry": { "type": "LineString", "coordinates": [ [ -79.95619305831859, 43.39 ], [ -80.023414547398914, 43.39 ] ] } },
{ "type": "Feature", "properties": { "CTUID": "5370224.02", "DGUID": "2021S05075370224.02", "CTNAME": "0224.02", "LANDAREA": 83.5286, "PRUID": "35", "pop21": "4014.00", "a_land": 83.53, "popdens": "48.10" }, "geometry": { "type": "LineString", "coordinates": [ [ -79.833914420027853, 43.39 ], [ -79.920479631929567, 43.39 ] ] } },
{ "type": "Feature", "properties": { "CTUID": "5500101.00", "DGUID": "2021S05075500101.00", "CTNAME": "0101.00", "LANDAREA": 214.8178, "PRUID": "35", "pop21": "7944.00", "a_land": 214.82, "popdens": "37.00" }, "geometry": { "type": "LineString", "coordinates": [ [ -80.250933913499622, 43.39 ], [ -80.270598490131306, 43.39 ] ] } },
{ "type": "Feature", "properties": { "CTUID": "5410002.15", "DGUID": "2021S05075410002.15", "CTNAME": "0002.15", "LANDAREA": 14.1675, "PRUID": "35", "pop21": "5555.00", "a_land": 14.17, "popdens": "392.10" }, "geometry": { "type": "LineString", "coordinates": [ [ -80.456308005998224, 43.39 ], [ -80.47008665078269, 43.39 ] ] } },
{ "type": "Feature", "properties": { "CTUID": "5410126.01", "DGUID": "2021S05075410126.01", "CTNAME": "0126.01", "LANDAREA": 3.3393, "PRUID": "35", "pop21": "3881.00", "a_land": 3.34, "popdens": "1162.20" }, "geometry": { "type": "LineString", "coordinates": [ [ -80.322329517031676, 43.39 ], [ -80.326408534176053, 43.39 ] ] } },
{ "type": "Feature", "properties": { "CTUID": "5410126.11", "DGUID": "2021S05075410126.11", "CTNAME": "0126.11", "LANDAREA": 3.613, "PRUID": "35", "pop21": "4347.00", "a_land": 3.61, "popdens": "1203.20" }, "geometry": { "type": "LineString", "coordinates": [ [ -80.270598490131306, 43.39 ], [ -80.28369227994186, 43.39 ] ] } },
{ "type": "Feature", "properties": { "CTUID": "5410126.10", "DGUID": "2021S05075410126.10", "CTNAME": "0126.10", "LANDAREA": 0.9483, "PRUID": "35", "pop21": "3419.00", "a_land": 0.95, "popdens": "3605.40" }, "geometry": { "type": "MultiLineString", "coordinates": [ [ [ -80.288883940034353, 43.39 ], [ -80.294415394032285, 43.39 ] ], [ [ -80.298003942205327, 43.39 ], [ -80.301835343664195, 43.39 ] ] ] } },
{ "type": "Feature", "properties": { "CTUID": "5410126.08", "DGUID": "2021S05075410126.08", "CTNAME": "0126.08", "LANDAREA": 1.221, "PRUID": "35", "pop21": "4540.00", "a_land": 1.22, "popdens": "3718.30" }, "geometry": { "type": "LineString", "coordinates": [ [ -80.301835343664195, 43.39 ], [ -80.312613928533793, 43.39 ] ] } },
{ "type": "Feature", "properties": { "CTUID": "5410001.03", "DGUID": "2021S05075410001.03", "CTNAME": "0001.03", "LANDAREA": 2.8215, "PRUID": "35", "pop21": "6254.00", "a_land": 2.82, "popdens": "2216.60" }, "geometry": { "type": "LineString", "coordinates": [ [ -80.437221090325494, 43.39 ], [ -80.456308005998224, 43.39 ] ] } },
{ "type": "Feature", "properties": { "CTUID": "5410129.01", "DGUID": "2021S05075410129.01", "CTNAME": "0129.01", "LANDAREA": 7.3967, "PRUID": "35", "pop21": "5810.00", "a_land": 7.4, "popdens": "785.50" }, "geometry": { "type": "LineString", "coordinates": [ [ -80.369853052683766, 43.39 ], [ -80.400483595114025, 43.39 ] ] } },
{ "type": "Feature", "properties": { "CTUID": "5410129.02", "DGUID": "2021S05075410129.02", "CTNAME": "0129.02", "LANDAREA": 1.8572, "PRUID": "35", "pop21": "4160.00", "a_land": 1.86, "popdens": "2239.90" }, "geometry": { "type": "LineString", "coordinates": [ [ -80.3494378143386, 43.39 ], [ -80.369853052683766, 43.39 ] ] } },
{ "type": "Feature", "properties": { "CTUID": "5410002.14", "DGUID": "2021S05075410002.14", "CTNAME": "0002.14", "LANDAREA": 10.7344, "PRUID": "35", "pop21": "9831.00", "a_land": 10.73, "popdens": "915.80" }, "geometry": { "type": "LineString", "coordinates": [ [ -80.47008665078269, 43.39 ], [ -80.527204202753154, 43.39 ] ] } },
{ "type": "Feature", "properties": { "CTUID": "5410001.01", "DGUID": "2021S05075410001.01", "CTNAME": "0001.01", "LANDAREA": 4.6432, "PRUID": "35", "pop21": "7091.00", "a_land": 4.64, "popdens": "1527.20" }, "geometry": { "type": "LineString", "coordinates": [ [ -80.400483595114025, 43.39 ], [ -80.437221090325494, 43.39 ] ] } },
{ "type": "Feature", "properties": { "CTUID": "5410128.00", "DGUID": "2021S05075410128.00", "CTNAME": "0128.00", "LANDAREA": 0.5334, "PRUID": "35", "pop21": "2149.00", "a_land": 0.53, "popdens": "4028.90" }, "geometry": { "type": "LineString", "coordinates": [ [ -80.344859045649955, 43.39 ], [ -80.3494378143386, 43.39 ] ] } },
{ "type": "Feature", "properties": { "CTUID": "5410151.00", "DGUID": "2021S05075410151.00", "CTNAME": "0151.00", "LANDAREA": 222.8047, "PRUID": "35", "pop21": "6218.00", "a_land": 222.8, "popdens": "27.90" }, "geometry": { "type": "LineString", "coordinates": [ [ -80.527204202753154, 43.39 ], [ -80.55, 43.39 ] ] } },
{ "type": "Feature", "properties": { "CTUID": "5410127.01", "DGUID": "2021S05075410127.01", "CTNAME": "0127.01", "LANDAREA": 2.3377, "PRUID": "35", "pop21": "5895.00", "a_land": 2.34, "popdens": "2521.70" }, "geometry": { "type": "LineString", "coordinates": [ [ -80.328624693156129, 43.39 ], [ -80.342681705689827, 43.39 ] ] } },
{ "type": "Feature", "properties": { "CTUID": "5410126.05", "DGUID": "2021S05075410126.05", "CTNAME": "0126.05", "LANDAREA": 5.3435, "PRUID": "35", "pop21": "1735.00", "a_land": 5.34, "popdens": "324.70" }, "geometry": { "type": "MultiLineString", "coordinates": [ [ [ -80.312613928533793, 43.39 ], [ -80.322329517031676, 43.39 ] ], [ [ -80.326408534176053, 43.39 ], [ -80.328624693156129, 43.39 ] ] ] } },
{ "type": "Feature", "properties": { "CTUID": "5410127.02", "DGUID": "2021S05075410127.02", "CTNAME": "0127.02", "LANDAREA": 4.126, "PRUID": "35", "pop21": "4850.00", "a_land": 4.13, "popdens": "1175.50" }, "geometry": { "type": "LineString", "coordinates": [ [ -80.342681705689827, 43.39 ], [ -80.344859045649955, 43.39 ] ] } },
{ "type": "Feature", "properties": { "CTUID": "5410126.13", "DGUID": "2021S05075410126.13", "CTNAME": "0126.13", "LANDAREA": 2.0152, "PRUID": "35", "pop21": "5366.00", "a_land": 2.02, "popdens": "2662.80" }, "geometry": { "type": "LineString", "coordinates": [ [ -80.28369227994186, 43.39 ], [ -80.285406256654014, 43.39 ] ] } },
{ "type": "Feature", "properties": { "CTUID": "5410126.12", "DGUID": "2021S05075410126.12", "CTNAME": "0126.12", "LANDAREA": 4.8645, "PRUID": "35", "pop21": "3369.00", "a_land": 4.86, "popdens": "692.60" }, "geometry": { "type": "MultiLineString", "coordinates": [ [ [ -80.285406256654014, 43.39 ], [ -80.288883940034353, 43.39 ] ], [ [ -80.294415394032285, 43.39 ], [ -80.298003942205327, 43.39 ] ] ] } }
]
}
