{
"type": "FeatureCollection",
"name": "greenspace_only",
"crs": { "type": "name", "properties": { "name": "urn:ogc:def:crs:OGC:1.3:CRS84" } },
"features": [
{ "type": "Feature", "properties": { "value": 1.0 }, "geometry": { "type": "MultiLineString", "coordinates": [ [ [ -79.710294252429307, 43.39 ], [ -79.712887096943589, 43.39 ] ], [ [ -79.713257503304732, 43.39 ], [ -79.714739128780636, 43.39 ] ], [ [ -79.715850347920366, 43.39 ], [ -79.716591160695785, 43.39 ] ], [ [ -79.716961567088177, 43.39 ], [ -79.718443192672595, 43.39 ] ], [ [ -79.718813599079965, 43.39 ], [ -79.729184979781252, 43.39 ] ], [ [ -79.730666605755431, 43.39 ], [ -79.733629857956686, 43.39 ] ], [ [ -79.734370670990813, 43.39 ], [ -79.735852297205113, 43.39 ] ], [ [ -79.747705308393435, 43.39 ], [ -79.748075715043441, 43.39 ] ] ] } },
{ "type": "Feature", "properties": { "value": 1.0 }, "geometry": { "type": "LineString", "coordinates": [ [ -79.790672499707185, 43.39 ], [ -79.79141331372378, 43.39 ] ] } },
{ "type": "Feature", "properties": { "value": 1.0 }, "geometry": { "type": "LineString", "coordinates": [ [ -79.752891001770067, 43.39 ], [ -79.753261408462592, 43.39 ] ] } },
{ "type": "Feature", "properties": { "value": 1.0 }, "geometry": { "type": "LineString", "coordinates": [ [ -79.760669542789572, 43.39 ], [ -79.761780763204115, 43.39 ] ] } },
{ "type": "Feature", "properties": { "value": 1.0 }, "geometry": { "type": "LineString", "coordinates": [ [ -79.76289198348195, 43.39 ], [ -79.763262390255377, 43.39 ] ] } },
{ "type": "Feature", "properties": { "value": 1.0 }, "geometry": { "type": "LineString", "coordinates": [ [ -79.777337849872296, 43.39 ], [ -79.778078663654114, 43.39 ] ] } },
{ "type": "Feature", "properties": { "value": 1.0 }, "geometry": { "type": "MultiLineString", "coordinates": [ [ [ -79.763632797031832, 43.39 ], [ -79.764744017394534, 43.39 ] ], [ [ -79.765484830984732, 43.39 ], [ -79.766596051375387, 43.39 ] ], [ [ -79.770670526371774, 43.39 ], [ -79.771040933207573, 43.39 ] ], [ [ -79.775485815469821, 43.39 ], [ -79.775856222334596, 43.39 ] ], [ [ -79.77993069812652, 43.39 ], [ -79.780301105070734, 43.39 ] ], [ [ -79.781041918899987, 43.39 ], [ -79.785486802114946, 43.39 ] ], [ [ -79.792894941519833, 43.39 ], [ -79.794006162769008, 43.39 ] ], [ [ -79.794376569790643, 43.39 ], [ -79.803266339193371, 43.39 ] ], [ [ -79.803636746287424, 43.39 ], [ -79.805118374692725, 43.39 ] ], [ [ -79.805488781801301, 43.39 ], [ -79.808034917578325, 43.39 ] ], [ [ -79.808822445871101, 43.39 ], [ -79.812896924567468, 43.39 ] ], [ [ -79.813267331735773, 43.39 ], [ -79.814008146064168, 43.39 ] ], [ [ -79.815119367593866, 43.39 ], [ -79.815860181972539, 43.39 ] ], [ [ -79.816230589151331, 43.39 ], [ -79.817712217847486, 43.39 ] ], [ [ -79.818082625053776, 43.39 ], [ -79.818823439584435, 43.39 ] ], [ [ -79.819564254021188, 43.39 ], [ -79.820305068480337, 43.39 ] ], [ [ -79.820675475706139, 43.39 ], [ -79.822527511878121, 43.39 ] ], [ [ -79.824379548121627, 43.39 ], [ -79.825490769902018, 43.39 ] ], [ [ -79.825861177143082, 43.39 ], [ -79.833639729765849, 43.39 ] ] ] } },
{ "type": "Feature", "properties": { "value": 1.0 }, "geometry": { "type": "LineString", "coordinates": [ [ -80.466298816873874, 43.39 ], [ -80.466669227715812, 43.39 ] ] } },
{ "type": "Feature", "properties": { "value": 1.0 }, "geometry": { "type": "LineString", "coordinates": [ [ -80.280723166448453, 43.39 ], [ -80.281093576546922, 43.39 ] ] } },
{ "type": "Feature", "properties": { "value": 1.0 }, "geometry": { "type": "MultiLineString", "coordinates": [ [ [ -79.834380542188939, 43.39 ], [ -79.837714211135321, 43.39 ] ], [ [ -79.841418284878458, 43.39 ], [ -79.937353889057448, 43.39 ] ], [ [ -79.938835521450812, 43.39 ], [ -79.962171236249958, 43.39 ] ], [ [ -79.9629120527119, 43.39 ], [ -79.991433495892636, 43.39 ] ], [ [ -79.992544721244769, 43.39 ], [ -80.052180513367418, 43.39 ] ], [ [ -80.052550922157039, 43.39 ], [ -80.104037772387358, 43.39 ] ], [ [ -80.104408181535561, 43.39 ], [ -80.105148999755556, 43.39 ] ], [ [ -80.10626022714915, 43.39 ], [ -80.111816364961697, 43.39 ] ], [ [ -80.11366841095321, 43.39 ], [ -80.142930744680996, 43.39 ] ], [ [ -80.144782791558768, 43.39 ], [ -80.146264429098366, 43.39 ] ], [ [ -80.149968523084439, 43.39 ], [ -80.167748176977469, 43.39 ] ], [ [ -80.168859405601779, 43.39 ], [ -80.2181238884218, 43.39 ] ], [ [ -80.219235117743281, 43.39 ], [ -80.276648655681953, 43.39 ] ], [ [ -80.277019065744398, 43.39 ], [ -80.280352756279143, 43.39 ] ], [ [ -80.283686447167639, 43.39 ], [ -80.284056857256644, 43.39 ] ], [ [ -80.284427267360655, 43.39 ], [ -80.285538497663197, 43.39 ] ], [ [ -80.28590890774484, 43.39 ], [ -80.288501778528556, 43.39 ] ], [ [ -80.289983419029213, 43.39 ], [ -80.292205879805365, 43.39 ] ], [ [ -80.292946700075774, 43.39 ], [ -80.293317110216663, 43.39 ] ], [ [ -80.293687520357182, 43.39 ], [ -80.29739162185632, 43.39 ] ], [ [ -80.297762032015285, 43.39 ], [ -80.299243672668197, 43.39 ] ], [ [ -80.299984493004871, 43.39 ], [ -80.308874337556105, 43.39 ] ], [ [ -80.309244747784504, 43.39 ], [ -80.310355978428774, 43.39 ] ], [ [ -80.310726388646884, 43.39 ], [ -80.312948849990619, 43.39 ] ], [ [ -80.315171311394394, 43.39 ], [ -80.317023362600494, 43.39 ] ], [ [ -80.318134593349228, 43.39 ], [ -80.320727465131952, 43.39 ] ], [ [ -80.322579516462909, 43.39 ], [ -80.325172388449175, 43.39 ] ], [ [ -80.327394850159379, 43.39 ], [ -80.332580594441382, 43.39 ] ], [ [ -80.332951004758456, 43.39 ], [ -80.341100032142492, 43.39 ] ], [ [ -80.341470442496416, 43.39 ], [ -80.342581673547372, 43.39 ] ], [ [ -80.34295208390752, 43.39 ], [ -80.345174546120958, 43.39 ] ], [ [ -80.34776741871184, 43.39 ], [ -80.351841933043531, 43.39 ] ], [ [ -80.35258275384426, 43.39 ], [ -80.35406439546459, 43.39 ] ], [ [ -80.354434805873595, 43.39 ], [ -80.354805216284177, 43.39 ] ], [ [ -80.355175626690993, 43.39 ], [ -80.36962163398168, 43.39 ] ], [ [ -80.369992044455714, 43.39 ], [ -80.387771748953625, 43.39 ] ], [ [ -80.388512570031025, 43.39 ], [ -80.399995297845265, 43.39 ] ], [ [ -80.400736119039053, 43.39 ], [ -80.40295858265533, 43.39 ] ], [ [ -80.404069814483051, 43.39 ], [ -80.404440225095186, 43.39 ] ], [ [ -80.404810635708756, 43.39 ], [ -80.408144331228684, 43.39 ] ], [ [ -80.41036679504883, 43.39 ], [ -80.41592295477524, 43.39 ] ], [ [ -80.417404597424067, 43.39 ], [ -80.4222199361609, 43.39 ] ], [ [ -80.423331168210822, 43.39 ], [ -80.462594708536727, 43.39 ] ], [ [ -80.46296511935472, 43.39 ], [ -80.465187584355874, 43.39 ] ], [ [ -80.465557995206254, 43.39 ], [ -80.465928406025313, 43.39 ] ], [ [ -80.46741004941687, 43.39 ], [ -80.472966212242227, 43.39 ] ], [ [ -80.474818266581451, 43.39 ], [ -80.477411142696155, 43.39 ] ], [ [ -80.480374429789819, 43.39 ], [ -80.484448949656468, 43.39 ] ], [ [ -80.485189771444212, 43.39 ], [ -80.485930593270496, 43.39 ] ], [ [ -80.486301004191418, 43.39 ], [ -80.518156346968141, 43.39 ] ], [ [ -80.522971690191895, 43.39 ], [ -80.545937176211524, 43.39 ] ], [ [ -80.547048409522489, 43.39 ], [ -80.548900465057116, 43.39 ] ] ] } }
]
}
