{
"type": "FeatureCollection",
"name": "greenspace_per_capita",
"crs": { "type": "name", "properties": { "name": "urn:ogc:def:crs:OGC:1.3:CRS84" } },
"features": [
{ "type": "Feature", "properties": { "CTUID": "5410140.01", "greenspace_per_capita": 0.0 }, "geometry": { "type": "LineString", "coordinates": [ [ -80.202433350295991, 43.39 ], [ -80.250933913499622, 43.39 ] ] } },
{ "type": "Feature", "properties": { "CTUID": "5370142.02", "greenspace_per_capita": 0.0 }, "geometry": { "type": "LineString", "coordinates": [ [ -80.069774845546178, 43.39 ], [ -80.202433350295991, 43.39 ] ] } },
{ "type": "Feature", "properties": { "CTUID": "5370143.00", "greenspace_per_capita": 0.0 }, "geometry": { "type": "LineString", "coordinates": [ [ -80.023414547398914, 43.39 ], [ -80.069774845546178, 43.39 ] ] } },
{ "type": "Feature", "properties": { "CTUID": "5370222.02", "greenspace_per_capita": null }, "geometry": { "type": "LineString", "coordinates": [ [ -79.749262685374958, 43.39 ], [ -79.750042074187448, 43.39 ] ] } },
{ "type": "Feature", "properties": { "CTUID": "5350610.06", "greenspace_per_capita": 0.0 }, "geometry": { "type": "LineString", "coordinates": [ [ -79.710485605734419, 43.39 ], [ -79.715353048976368, 43.39 ] ] } },
{ "type": "Feature", "properties": { "CTUID": "5370222.01", "greenspace_per_capita": -1.0 }, "geometry": { "type": "LineString", "coordinates": [ [ -79.750042074187448, 43.39 ], [ -79.762434303546115, 43.39 ] ] } },
{ "type": "Feature", "properties": { "CTUID": "5350610.05", "greenspace_per_capita": 0.0 }, "geometry": { "type": "LineString", "coordinates": [ [ -79.715353048976368, 43.39 ], [ -79.728664589720296, 43.39 ] ] } },
{ "type": "Feature", "properties": { "CTUID": "5370144.02", "greenspace_per_capita": 0.0 }, "geometry": { "type": "LineString", "coordinates": [ [ -79.920479631929567, 43.39 ], [ -79.95619305831859, 43.39 ] ] } },
{ "type": "Feature", "properties": { "CTUID": "5370223.20", "greenspace_per_capita": 0.0 }, "geometry": { "type": "LineString", "coordinates": [ [ -79.784934935764241, 43.39 ], [ -79.794455235072306, 43.39 ] ] } },
{ "type": "Feature", "properties": { "CTUID": "5370223.16", "greenspace_per_capita": 0.0 }, "geometry": { "type": "LineString", "coordinates": [ [ -79.820920652851626, 43.39 ], [ -79.826288278471495, 43.39 ] ] } },
{ "type": "Feature", "properties": { "CTUID": "5370223.15", "greenspace_per_capita": 0.0 }, "geometry": { "type": "LineString", "coordinates": [ [ -79.812889656081026, 43.39 ], [ -79.820920652851626, 43.39 ] ] } },
{ "type": "Feature", "properties": { "CTUID": "5370223.13", "greenspace_per_capita": 0.0 }, "geometry": { "type": "LineString", "coordinates": [ [ -79.794455235072306, 43.39 ], [ -79.800946863596181, 43.39 ] ] } },
{ "type": "Feature", "properties": { "CTUID": "5370223.14", "greenspace_per_capita": 0.0 }, "geometry": { "type": "LineString", "coordinates": [ [ -79.800946863596181, 43.39 ], [ -79.812889656081026, 43.39 ] ] } },
{ "type": "Feature", "properties": { "CTUID": "5370224.05", "greenspace_per_capita": 0.0 }, "geometry": { "type": "LineString", "coordinates": [ [ -79.826288278471495, 43.39 ], [ -79.833914420027853, 43.39 ] ] } },
{ "type": "Feature", "properties": { "CTUID": "5370223.19", "greenspace_per_capita": 0.0 }, "geometry": { "type": "LineString", "coordinates": [ [ -79.762434303546115, 43.39 ], [ -79.784934935764241, 43.39 ] ] } },
{ "type": "Feature", "properties": { "CTUID": "5350612.01", "greenspace_per_capita": 0.0 }, "geometry": { "type": "LineString", "coordinates": [ [ -79.728664589720296, 43.39 ], [ -79.749262685374958, 43.39 ] ] } },
{ "type": "Feature", "properties": { "CTUID": "5370144.01", "greenspace_per_capita": 0.0 }, "geometry": { "type": "LineString", "coordinates": [ [ -79.95619305831859, 43.39 ], [ -80.023414547398914, 43.39 ] ] } },
{ "type": "Feature", "properties": { "CTUID": "5370224.02", "greenspace_per_capita": 0.0 }, "geometry": { "type": "LineString", "coordinates": [ [ -79.833914420027853, 43.39 ], [ -79.920479631929567, 43.39 ] ] } },
{ "type": "Feature", "properties": { "CTUID": "5500101.00", "greenspace_per_capita": 0.0 }, "geometry": { "type": "LineString", "coordinates": [ [ -80.250933913499622, 43.39 ], [ -80.270598490131306, 43.39 ] ] } },
{ "type": "Feature", "properties": { "CTUID": "5410002.15", "greenspace_per_capita": 0.0 }, "geometry": { "type": "LineString", "coordinates": [ [ -80.456308005998224, 43.39 ], [ -80.47008665078269, 43.39 ] ] } },
{ "type": "Feature", "properties": { "CTUID": "5410126.01", "greenspace_per_capita": 0.0 }, "geometry": { "type": "LineString", "coordinates": [ [ -80.322329517031676, 43.39 ], [ -80.326408534176053, 43.39 ] ] } },
{ "type": "Feature", "properties": { "CTUID": "5410126.11", "greenspace_per_capita": 0.0 }, "geometry": { "type": "LineString", "coordinates": [ [ -80.270598490131306, 43.39 ], [ -80.28369227994186, 43.39 ] ] } },
{ "type": "Feature", "properties": { "CTUID": "5410126.10", "greenspace_per_capita": 0.0 }, "geometry": { "type": "MultiLineString", "coordinates": [ [ [ -80.288883940034353, 43.39 ], [ -80.294415394032285, 43.39 ] ], [ [ -80.298003942205327, 43.39 ], [ -80.301835343664195, 43.39 ] ] ] } },
{ "type": "Feature", "properties": { "CTUID": "5410126.08", "greenspace_per_capita": 0.0 }, "geometry": { "type": "LineString", "coordinates": [ [ -80.301835343664195, 43.39 ], [ -80.312613928533793, 43.39 ] ] } },
{ "type": "Feature", "properties": { "CTUID": "5410001.03", "greenspace_per_capita": 0.0 }, "geometry": { "type": "LineString", "coordinates": [ [ -80.437221090325494, 43.39 ], [ -80.456308005998224, 43.39 ] ] } },
{ "type": "Feature", "properties": { "CTUID": "5410129.01", "greenspace_per_capita": 0.0 }, "geometry": { "type": "LineString", "coordinates": [ [ -80.369853052683766, 43.39 ], [ -80.400483595114025, 43.39 ] ] } },
{ "type": "Feature", "properties": { "CTUID": "5410129.02", "greenspace_per_capita": 0.0 }, "geometry": { "type": "LineString", "coordinates": [ [ -80.3494378143386, 43.39 ], [ -80.369853052683766, 43.39 ] ] } },
{ "type": "Feature", "properties": { "CTUID": "5410002.14", "greenspace_per_capita": 0.0 }, "geometry": { "type": "LineString", "coordinates": [ [ -80.47008665078269, 43.39 ], [ -80.527204202753154, 43.39 ] ] } },
{ "type": "Feature", "properties": { "CTUID": "5410001.01", "greenspace_per_capita": 0.0 }, "geometry": { "type": "LineString", "coordinates": [ [ -80.400483595114025, 43.39 ], [ -80.437221090325494, 43.39 ] ] } },
{ "type": "Feature", "properties": { "CTUID": "5410128.00", "greenspace_per_capita": 0.0 }, "geometry": { "type": "LineString", "coordinates": [ [ -80.344859045649955, 43.39 ], [ -80.3494378143386, 43.39 ] ] } },
{ "type": "Feature", "properties": { "CTUID": "5410151.00", "greenspace_per_capita": 0.0 }, "geometry": { "type": "LineString", "coordinates": [ [ -80.527204202753154, 43.39 ], [ -80.55, 43.39 ] ] } },
{ "type": "Feature", "properties": { "CTUID": "5410127.01", "greenspace_per_capita": 0.0 }, "geometry": { "type": "LineString", "coordinates": [ [ -80.328624693156129, 43.39 ], [ -80.342681705689827, 43.39 ] ] } },
{ "type": "Feature", "properties": { "CTUID": "5410126.05", "greenspace_per_capita": 0.0 }, "geometry": { "type": "MultiLineString", "coordinates": [ [ [ -80.312613928533793, 43.39 ], [ -80.322329517031676, 43.39 ] ], [ [ -80.326408534176053, 43.39 ], [ -80.328624693156129, 43.39 ] ] ] } },
{ "type": "Feature", "properties": { "CTUID": "5410127.02", "greenspace_per_capita": 0.0 }, "geometry": { "type": "LineString", "coordinates": [ [ -80.342681705689827, 43.39 ], [ -80.344859045649955, 43.39 ] ] } },
{ "type": "Feature", "properties": { "CTUID": "5410126.13", "greenspace_per_capita": 0.0 }, "geometry": { "type": "LineString", "coordinates": [ [ -80.28369227994186, 43.39 ], [ -80.285406256654014, 43.39 ] ] } },
{ "type": "Feature", "properties": { "CTUID": "5410126.12", "greenspace_per_capita": 0.0 }, "geometry": { "type": "MultiLineString", "coordinates": [ [ [ -80.285406256654014, 43.39 ], [ -80.288883940034353, 43.39 ] ], [ [ -80.294415394032285, 43.39 ], [ -80.298003942205327, 43.39 ] ] ] } }
]
}
